satname,norad_id,inclination_deg,eccentricity,mean_motion_rev_per_day,perigee_km,apogee_km,l1,l2
STARLINK-1454,45671,53.0529,0.0006232,15.47047486,421.1286312608481,429.60852061069363,1 45671U 20035Q   26048.68284331  .00069175  00000+0  13416-2 0  9992,2 45671  53.0529 148.6876 0006232 340.2430  19.8334 15.47047486315810
STARLINK-1456,45673,53.0495,0.000415,15.45501276,427.0802322834861,432.73090761654566,1 45673U 20035S   26048.68146775  .00046794  00000+0  96298-3 0  9995,2 45673  53.0495 142.1881 0004150 275.6744  84.3789 15.45501276315928
STARLINK-1457,45674,53.0477,0.000903,15.73512802,342.792024762688,354.9409930998181,1 45674U 20035T   26048.91668981  .00145644  00000+0  10084-2 0  9992,2 45674  53.0477 121.0648 0009030 354.2039 206.4355 15.73512802  6009
STARLINK-1458,45675,53.053,0.0004168,15.40308969,442.3527429210508,448.040673900382,1 45675U 20035U   26048.71180823  .00057975  00000+0  14155-2 0  9997,2 45675  53.0530 150.1681 0004168  13.0761 347.0350 15.40308969315774
STARLINK-1460,45676,53.0628,0.0001407,15.09149449,537.8244760840817,539.7709015055088,1 45676U 20035V   26048.91668981  .00000870  00000+0  72216-4 0  9992,2 45676  53.0628 155.3694 0001407  87.6581 210.2095 15.09149449  5778
STARLINK-1392,45677,53.0567,0.0001689,15.06408368,546.0162243024861,548.3555983819388,1 45677U 20035W   26048.67554555  .00000831  00000+0  74657-4 0  9995,2 45677  53.0567 156.4650 0001689 115.7026 244.4137 15.06408368315713
STARLINK-1394,45679,53.0523,0.0002659,15.43898627,432.8046513255822,436.4276734573423,1 45679U 20035Y   26048.46958536  .00076840  00000+0  16576-2 0  9998,2 45679  53.0523 133.2659 0002659 252.1410 107.9306 15.43898627316028
STARLINK-1402,45685,53.0501,0.0002326,15.41851279,439.0596581230593,442.23175583834563,1 45685U 20035AE  26048.57788414  .00067758  00000+0  15687-2 0  9993,2 45685  53.0501 118.9162 0002326 211.8864 148.2000 15.41851279316249
STARLINK-1404,45686,53.1613,0.0001377,15.30210595,474.239732617737,476.1271370654931,1 45686U 20035AF  26048.57892167  .00008728  00000+0  30636-3 0  9999,2 45686  53.1613 143.1123 0001377  75.4097 284.7057 15.30210595315895
STARLINK-1413,45689,53.1627,0.000152,15.30193609,474.19243944467235,476.27586427483766,1 45689U 20035AJ  26048.51991295  .00001198  00000+0  52579-4 0  9993,2 45689  53.1627 143.2654 0001520  89.0541 271.0634 15.30193609315805
STARLINK-1417,45693,53.0518,0.0003971,15.11369469,529.2785749348168,534.7666236885907,1 45693U 20035AN  26048.70038554  .00022525  00000+0  13328-2 0  9993,2 45693  53.0518 144.8208 0003971 177.3914 182.7099 15.11369469315875
STARLINK-1420,45695,53.0541,0.000285,15.48066485,420.44454134867647,424.3208375716695,1 45695U 20035AQ  26048.57000723  .00020542  00000+0  39301-3 0  9994,2 45695  53.0541 119.0604 0002850  36.2827 323.8373 15.48066485316234
STARLINK-1422,45696,53.1616,0.00014,15.30203608,474.2448288213127,476.16376438436237,1 45696U 20035AR  26048.65791348  .00003673  00000+0  13605-3 0  9999,2 45696  53.1616 142.6262 0001400  95.7496 264.3664 15.30203608315909
STARLINK-1351,45697,53.0541,0.0001663,15.49437166,417.2412023705929,419.5017210849637,1 45697U 20035AS  26048.47866556  .00026981  00000+0  48925-3 0  9994,2 45697  53.0541 118.6685 0001663  64.5245 295.5935 15.49437166316237
STARLINK-1398,45699,53.0404,0.0005061,15.83710959,316.5669190120634,323.346729581016,1 45699U 20035AU  26048.91668981  .00311387  00000+0  13352-2 0  9999,2 45699  53.0404  39.7740 0005061  47.3032  83.9084 15.83710959  5928
STARLINK-1400,45700,53.0523,0.0005675,15.46835356,422.1292323586813,429.85191715603196,1 45700U 20035AV  26048.68033432  .00065158  00000+0  12743-2 0  9998,2 45700  53.0523 118.7555 0005675  17.7061 342.4142 15.46835356316245
STARLINK-1403,45701,53.0554,0.0001307,15.06405371,546.2899557407218,548.1002375507842,1 45701U 20035AW  26048.50507816 -.00000566  00000+0 -19135-4 0  9990,2 45701  53.0554 127.2325 0001307  95.1411 264.9727 15.06405371316105
STARLINK-1407,45703,53.0357,0.0012798,15.5621342,389.9547558895165,407.3005627114626,1 45703U 20035AY  26048.29411179  .00060556  00000+0  84592-3 0  9995,2 45703  53.0357  54.7860 0012798  28.9418 331.2300 15.56213420317117
STARLINK-1411,45706,53.0452,0.0004924,15.58126382,389.74567488361754,396.41396920996885,1 45706U 20035BB  26048.31970182  .00081923  00000+0  10637-2 0  9994,2 45706  53.0452  80.6594 0004924  44.4504 315.6902 15.58126382316743
STARLINK-1423,45710,53.0527,0.0004663,15.48812892,417.02757047843807,423.36769735803136,1 45710U 20035BF  26048.54700514  .00066071  00000+0  12063-2 0  9996,2 45710  53.0527 118.7592 0004663  28.8224 331.3041 15.48812892316226
STARLINK-1433,45711,53.0523,0.0005356,15.50953928,410.3017866702112,417.57745914867155,1 45711U 20035BG  26048.79207918  .00078465  00000+0  13247-2 0  9999,2 45711  53.0523 116.9267 0005356  23.5198 336.6054 15.50953928316270
STARLINK-1434,45712,53.0515,0.0003401,15.24664881,489.45545313635466,494.1283787849916,1 45712U 20035BH  26048.58779159  .00037185  00000+0  14915-2 0  9995,2 45712  53.0515 112.9852 0003401  11.7800 348.3276 15.24664881316326
STARLINK-1465,45731,53.0547,0.0004322,15.46729375,423.3605028573702,429.2422593940155,1 45731U 20038B   26048.18139611  .00079990  00000+0  15655-2 0  9990,2 45731  53.0547 321.2987 0004322 132.8782 227.2588 15.46729375313202
STARLINK-1471,45735,53.046,0.000378,15.47679545,420.94509622316036,426.087145982714,1 45735U 20038F   26048.69982918  .00020100  00000+0  38990-3 0  9993,2 45735  53.0460 237.7018 0003780 149.7018 210.4208 15.47679545314435
STARLINK-1474,45738,53.0184,0.0009293,16.14030105,229.6643223068986,241.95700543496878,1 45738U 20038J   26048.76811241  .01058248  73770-3  83531-3 0  9998,2 45738  53.0184 164.1458 0009293 331.2778  28.7744 16.14030105315454
STARLINK-1480,45741,53.0533,0.0010537,15.45037141,424.0938718092566,438.4440138932214,1 45741U 20038M   26048.11483328  .00076320  00000+0  15815-2 0  9993,2 45741  53.0533 315.4514 0010537 107.0622 253.1539 15.45037141313296
STARLINK-1500,45744,53.0365,0.0003997,15.33628128,462.2631674028962,467.7335698165625,1 45744U 20038Q   26048.67800124  .00019834  00000+0  61115-3 0  9996,2 45744  53.0365 286.5357 0003997 154.7994 205.3202 15.33628128313742
STARLINK-1504,45746,53.0215,0.0003891,15.51677441,409.18615292089,414.470103783774,1 45746U 20038S   26047.89196292  .00033375  00000+0  55679-3 0  9999,2 45746  53.0215 242.4039 0003891 136.2133 223.9185 15.51677441314287
STARLINK-1506,45747,53.0774,0.0004059,15.25541113,486.37361954084554,491.94849210256234,1 45747U 20038T   26048.68178403  .00008959  00000+0  36153-3 0  9998,2 45747  53.0774 294.8574 0004059 157.4622 202.6555 15.25541113313638
STARLINK-1464,45751,53.0546,0.0004563,15.41979847,437.15543743560374,443.37791262943756,1 45751U 20038X   26048.09692631  .00069948  00000+0  16113-2 0  9990,2 45751  53.0546 302.3685 0004563 141.8779 218.2550 15.41979847313475
STARLINK-1477,45754,53.0503,0.0002082,15.13143169,525.1839332229674,528.05907466401,1 45754U 20038AA  26048.69315315  .00023267  00000+0  13101-2 0  9998,2 45754  53.0503 303.7598 0002082  74.9828 285.1394 15.13143169313506
STARLINK-1478,45755,53.0537,0.0007573,15.50981016,408.71696018982766,419.00411966380034,1 45755U 20038AB  26047.90926545  .00086396  00000+0  14542-2 0  9997,2 45755  53.0537 298.0282 0007573 131.2659 228.9003 15.50981016313503
STARLINK-1484,45756,53.0035,0.0005142,15.89600053,299.9677040106171,306.8390001086764,1 45756U 20038AC  26048.91668981  .00212067  00000+0  69047-3 0  9994,2 45756  53.0035 158.1597 0005142 336.1547  50.0225 15.89600053  6043
STARLINK-1493,45759,53.0538,0.0002472,15.4425973,431.87022785394674,435.2379279228544,1 45759U 20038AF  26048.80863405  .00064805  00000+0  13846-2 0  9993,2 45759  53.0538 299.4523 0002472 138.5598 221.5595 15.44259730313561
STARLINK-1494,45760,53.0474,0.0001821,15.69817687,358.19170018591194,360.64551793873125,1 45760U 20038AG  26048.59281357  .00066056  00000+0  54325-3 0  9999,2 45760  53.0474 251.2262 0001821 227.4293 132.6570 15.69817687314233
STARLINK-1502,45764,53.0538,0.0001428,15.44599615,431.5822115573592,433.5273451292551,1 45764U 20038AL  26048.91668981  .00002311  00000+0  57858-4 0  9990,2 45764  53.0538 300.2828 0001428  82.1613  17.2641 15.44599615  5804
STARLINK-1470,45772,53.047,0.0002359,15.26068399,485.95948652750576,489.19873138771254,1 45772U 20038AU  26047.99119343  .00057137  00000+0  21847-2 0  9992,2 45772  53.0470 270.2385 0002359 111.6272 248.4977 15.26068399313919
STARLINK-1482,45773,53.1552,0.0001445,15.29347212,476.77184631744603,478.75320127982377,1 45773U 20038AV  26048.04020041 -.00003275  00000+0 -10122-3 0  9997,2 45773  53.1552 286.9181 0001445  80.3257 279.7907 15.29347212313681
STARLINK-1496,45780,53.053,0.0008144,15.44489583,427.33135367445357,438.4251353046793,1 45780U 20038BC  26048.02172110  .00114219  00000+0  23970-2 0  9991,2 45780  53.0530 276.4179 0008144 131.9362 228.2339 15.44489583313816
STARLINK-1513,45786,53.1558,0.0001401,15.29342147,476.8171474309038,478.73817471893744,1 45786U 20038BJ  26048.24580205  .00002073  00000+0  84176-4 0  9990,2 45786  53.1558 286.0971 0001401  72.6075 287.5078 15.29342147313715
STARLINK-1522,46027,53.0561,0.000149,15.0640149,546.1751150519367,548.2388675613447,1 46027U 20055A   26048.65896315  .00000130  00000+0  27628-4 0  9996,2 46027  53.0561 216.5398 0001490  77.2112 282.9043 15.06401490305869
STARLINK-1523,46028,53.0549,0.0001444,15.06392134,546.2356423872716,548.23569001327,1 46028U 20055B   26048.67371575 -.00000916  00000+0 -42612-4 0  9999,2 46028  53.0549 216.4722 0001444  94.7238 265.3916 15.06392134305888
STARLINK-1526,46029,53.0547,0.0001529,15.06401268,546.148786503325,548.2665569039327,1 46029U 20055C   26048.66633897 -.00000141  00000+0  94084-5 0  9997,2 46029  53.0547 216.5050 0001529  95.6157 264.5006 15.06401268305875
